start=new Date('2021-09-29T00:00:00.000Z').valueOf();
sats=[{"COUNTRY_CODE":"US","MEAN_MOTION":"15.69750082","ELEMENT_SET_NO":"999","OBJECT_ID":"2021-082AT","OBJECT_TYPE":"PAYLOAD","FILE":"3132662","BSTAR":"-0.00005319000000","TIME_SYSTEM":"UTC","SITE":"AFWTR","GP_ID":"185717811","RCS_SIZE":"LARGE","CENTER_NAME":"EARTH","APOAPSIS":"361.978","ECCENTRICITY":"0.00035090","EPOCH":"2021-09-28T14:00:01.000224","CLASSIFICATION_TYPE":"U","LAUNCH_DATE":"2021-09-14","MEAN_MOTION_DOT":"-0.00006557","PERIOD":"91.734","REV_AT_EPOCH":"261","TLE_LINE2":"2 49171  70.0004  86.1584 0003509 262.7516 122.6242 15.69750082  2614","MEAN_ELEMENT_THEORY":"SGP4","DECAY_DATE":null,"TLE_LINE1":"1 49171U 21082AT  21271.58334491 -.00006557  00000-0 -53190-4 0  9992","INCLINATION":"70.0004","NORAD_CAT_ID":"49171","PERIAPSIS":"357.250","REF_FRAME":"TEME","RA_OF_ASC_NODE":"86.1584","ARG_OF_PERICENTER":"262.7516","EPHEMERIS_TYPE":"0","SEMIMAJOR_AXIS":"6737.749","MEAN_MOTION_DDOT":"0.0000000000000","OBJECT_NAME":"STARLINK-3107","MEAN_ANOMALY":"122.6242"},{"MEAN_MOTION":"15.69811959","COUNTRY_CODE":"US","ELEMENT_SET_NO":"999","OBJECT_ID":"2021-082AU","TIME_SYSTEM":"UTC","FILE":"3132662","BSTAR":"-0.00088336000000","SITE":"AFWTR","OBJECT_TYPE":"PAYLOAD","APOAPSIS":"361.796","RCS_SIZE":"LARGE","GP_ID":"185717699","CENTER_NAME":"EARTH","REV_AT_EPOCH":"261","MEAN_MOTION_DOT":"-0.00104635","PERIOD":"91.731","ECCENTRICITY":"0.00035020","LAUNCH_DATE":"2021-09-14","EPOCH":"2021-09-28T14:00:01.000224","CLASSIFICATION_TYPE":"U","INCLINATION":"70.0004","MEAN_ELEMENT_THEORY":"SGP4","TLE_LINE2":"2 49172  70.0004  86.1458 0003502 266.0442 129.9348 15.69811959  2611","TLE_LINE1":"1 49172U 21082AU  21271.58334491 -.00104635  00000-0 -88336-3 0  9998","DECAY_DATE":null,"PERIAPSIS":"357.078","NORAD_CAT_ID":"49172","RA_OF_ASC_NODE":"86.1458","REF_FRAME":"TEME","ARG_OF_PERICENTER":"266.0442","MEAN_ANOMALY":"129.9348","EPHEMERIS_TYPE":"0","OBJECT_NAME":"STARLINK-3091","MEAN_MOTION_DDOT":"0.0000000000000","SEMIMAJOR_AXIS":"6737.572"},{"PERIAPSIS":"333.661","NORAD_CAT_ID":"49173","INCLINATION":"70.0000","TLE_LINE1":"1 49173U 21082AV  21271.91667824 -.00894811  00000-0 -60208-2 0  9994","DECAY_DATE":null,"MEAN_ELEMENT_THEORY":"SGP4","TLE_LINE2":"2 49173  70.0000  84.9596 0006918 236.9553  97.2219 15.77225465  2434","MEAN_ANOMALY":"97.2219","MEAN_MOTION_DDOT":"0.0000000000000","OBJECT_NAME":"STARLINK-3045","SEMIMAJOR_AXIS":"6716.443","EPHEMERIS_TYPE":"0","ARG_OF_PERICENTER":"236.9553","REF_FRAME":"TEME","RA_OF_ASC_NODE":"84.9596","SITE":"AFWTR","TIME_SYSTEM":"UTC","FILE":"3133000","BSTAR":"-0.00602080000000","OBJECT_TYPE":"PAYLOAD","ELEMENT_SET_NO":"999","OBJECT_ID":"2021-082AV","MEAN_MOTION":"15.77225465","COUNTRY_CODE":"US","REV_AT_EPOCH":"243","MEAN_MOTION_DOT":"-0.00894811","PERIOD":"91.300","LAUNCH_DATE":"2021-09-14","EPOCH":"2021-09-28T22:00:00.999936","CLASSIFICATION_TYPE":"U","ECCENTRICITY":"0.00069180","APOAPSIS":"342.954","CENTER_NAME":"EARTH","RCS_SIZE":"LARGE","GP_ID":"185725405"},{"RCS_SIZE":"LARGE","GP_ID":"185718132","CENTER_NAME":"EARTH","APOAPSIS":"361.926","ECCENTRICITY":"0.00035220","LAUNCH_DATE":"2021-09-14","EPOCH":"2021-09-28T14:00:01.000224","CLASSIFICATION_TYPE":"U","REV_AT_EPOCH":"261","PERIOD":"91.733","MEAN_MOTION_DOT":"-0.00041401","COUNTRY_CODE":"US","MEAN_MOTION":"15.69771355","OBJECT_ID":"2021-082AW","ELEMENT_SET_NO":"999","OBJECT_TYPE":"PAYLOAD","TIME_SYSTEM":"UTC","BSTAR":"-0.00034641000000","FILE":"3132662","SITE":"AFWTR","RA_OF_ASC_NODE":"86.1509","REF_FRAME":"TEME","ARG_OF_PERICENTER":"275.3833","EPHEMERIS_TYPE":"0","OBJECT_NAME":"STARLINK-3047","MEAN_MOTION_DDOT":"0.0000000000000","SEMIMAJOR_AXIS":"6737.688","MEAN_ANOMALY":"116.3625","MEAN_ELEMENT_THEORY":"SGP4","TLE_LINE2":"2 49174  70.0004  86.1509 0003522 275.3833 116.3625 15.69771355  2612","TLE_LINE1":"1 49174U 21082AW  21271.58334491 -.00041401  00000-0 -34641-3 0  9991","DECAY_DATE":null,"INCLINATION":"70.0004","NORAD_CAT_ID":"49174","PERIAPSIS":"357.180"},{"REV_AT_EPOCH":"242","MEAN_MOTION_DOT":"0.00004817","PERIOD":"91.735","LAUNCH_DATE":"2021-09-14","CLASSIFICATION_TYPE":"U","EPOCH":"2021-09-28T22:00:00.999936","ECCENTRICITY":"0.00034950","APOAPSIS":"361.985","CENTER_NAME":"EARTH","RCS_SIZE":"LARGE","GP_ID":"185725413","SITE":"AFWTR","TIME_SYSTEM":"UTC","BSTAR":"0.00004211600000","FILE":"3133000","OBJECT_TYPE":"PAYLOAD","OBJECT_ID":"2021-082AX","ELEMENT_SET_NO":"999","COUNTRY_CODE":"US","MEAN_MOTION":"15.69744337","MEAN_ANOMALY":"205.1411","OBJECT_NAME":"STARLINK-3087","MEAN_MOTION_DDOT":"0.0000000000000","SEMIMAJOR_AXIS":"6737.765","EPHEMERIS_TYPE":"0","ARG_OF_PERICENTER":"276.1221","RA_OF_ASC_NODE":"85.2064","REF_FRAME":"TEME","PERIAPSIS":"357.276","NORAD_CAT_ID":"49175","INCLINATION":"70.0000","TLE_LINE1":"1 49175U 21082AX  21271.91667824  .00004817  00000-0  42116-4 0  9993","DECAY_DATE":null,"MEAN_ELEMENT_THEORY":"SGP4","TLE_LINE2":"2 49175  70.0000  85.2064 0003495 276.1221 205.1411 15.69744337  2423"},{"COUNTRY_CODE":"US","MEAN_MOTION":"15.69744177","OBJECT_ID":"2021-082AY","ELEMENT_SET_NO":"999","BSTAR":"0.00004448300000","FILE":"3133173","TIME_SYSTEM":"UTC","SITE":"AFWTR","OBJECT_TYPE":"PAYLOAD","APOAPSIS":"361.995","GP_ID":"185729121","RCS_SIZE":"LARGE","CENTER_NAME":"EARTH","PERIOD":"91.735","MEAN_MOTION_DOT":"0.00005100","REV_AT_EPOCH":"242","ECCENTRICITY":"0.00035090","EPOCH":"2021-09-28T22:00:00.999936","CLASSIFICATION_TYPE":"U","LAUNCH_DATE":"2021-09-14","INCLINATION":"70.0000","TLE_LINE2":"2 49176  70.0000  85.1963 0003509 276.7161 213.0535 15.69744177  2423","MEAN_ELEMENT_THEORY":"SGP4","DECAY_DATE":null,"TLE_LINE1":"1 49176U 21082AY  21271.91667824  .00005100  00000-0  44483-4 0  9999","PERIAPSIS":"357.267","NORAD_CAT_ID":"49176","REF_FRAME":"TEME","RA_OF_ASC_NODE":"85.1963","ARG_OF_PERICENTER":"276.7161","MEAN_ANOMALY":"213.0535","EPHEMERIS_TYPE":"0","SEMIMAJOR_AXIS":"6737.766","OBJECT_NAME":"STARLINK-3069","MEAN_MOTION_DDOT":"0.0000000000000"},{"TLE_LINE1":"1 49177U 21082AZ  21271.91667824  .00004862  00000-0  42488-4 0  9997","DECAY_DATE":null,"MEAN_ELEMENT_THEORY":"SGP4","TLE_LINE2":"2 49177  70.0000  85.2038 0003507 276.4123 206.9775 15.69744311  3621","INCLINATION":"70.0000","NORAD_CAT_ID":"49177","PERIAPSIS":"357.268","ARG_OF_PERICENTER":"276.4123","RA_OF_ASC_NODE":"85.2038","REF_FRAME":"TEME","MEAN_MOTION_DDOT":"0.0000000000000","OBJECT_NAME":"STARLINK-3103","SEMIMAJOR_AXIS":"6737.766","EPHEMERIS_TYPE":"0","MEAN_ANOMALY":"206.9775","ELEMENT_SET_NO":"999","OBJECT_ID":"2021-082AZ","MEAN_MOTION":"15.69744311","COUNTRY_CODE":"US","OBJECT_TYPE":"PAYLOAD","SITE":"AFWTR","TIME_SYSTEM":"UTC","BSTAR":"0.00004248800000","FILE":"3133173","CENTER_NAME":"EARTH","RCS_SIZE":"LARGE","GP_ID":"185729124","APOAPSIS":"361.994","LAUNCH_DATE":"2021-09-14","CLASSIFICATION_TYPE":"U","EPOCH":"2021-09-28T22:00:00.999936","ECCENTRICITY":"0.00035070","REV_AT_EPOCH":"362","PERIOD":"91.735","MEAN_MOTION_DOT":"0.00004862"},{"REF_FRAME":"TEME","RA_OF_ASC_NODE":"85.1988","ARG_OF_PERICENTER":"272.4807","EPHEMERIS_TYPE":"0","SEMIMAJOR_AXIS":"6737.766","MEAN_MOTION_DDOT":"0.0000000000000","OBJECT_NAME":"STARLINK-3086","MEAN_ANOMALY":"215.1624","TLE_LINE2":"2 49178  70.0000  85.1988 0003466 272.4807 215.1624 15.69744099  3587","MEAN_ELEMENT_THEORY":"SGP4","DECAY_DATE":null,"TLE_LINE1":"1 49178U 21082BA  21271.91667824  .00005268  00000-0  45885-4 0  9993","INCLINATION":"70.0000","NORAD_CAT_ID":"49178","PERIAPSIS":"357.296","GP_ID":"185729060","RCS_SIZE":"LARGE","CENTER_NAME":"EARTH","APOAPSIS":"361.966","ECCENTRICITY":"0.00034660","EPOCH":"2021-09-28T22:00:00.999936","CLASSIFICATION_TYPE":"U","LAUNCH_DATE":"2021-09-14","PERIOD":"91.735","MEAN_MOTION_DOT":"0.00005268","REV_AT_EPOCH":"358","COUNTRY_CODE":"US","MEAN_MOTION":"15.69744099","OBJECT_ID":"2021-082BA","ELEMENT_SET_NO":"999","OBJECT_TYPE":"PAYLOAD","BSTAR":"0.00004588500000","FILE":"3133169","TIME_SYSTEM":"UTC","SITE":"AFWTR"},{"MEAN_MOTION_DOT":"0.00005175","PERIOD":"91.735","REV_AT_EPOCH":"242","ECCENTRICITY":"0.00034880","EPOCH":"2021-09-28T22:00:00.999936","CLASSIFICATION_TYPE":"U","LAUNCH_DATE":"2021-09-14","APOAPSIS":"361.981","GP_ID":"185729094","RCS_SIZE":"LARGE","CENTER_NAME":"EARTH","FILE":"3133180","BSTAR":"0.00004511300000","TIME_SYSTEM":"UTC","SITE":"AFWTR","OBJECT_TYPE":"PAYLOAD","COUNTRY_CODE":"US","MEAN_MOTION":"15.69744150","ELEMENT_SET_NO":"999","OBJECT_ID":"2021-082BB","MEAN_ANOMALY":"211.1492","EPHEMERIS_TYPE":"0","SEMIMAJOR_AXIS":"6737.766","MEAN_MOTION_DDOT":"0.0000000000000","OBJECT_NAME":"STARLINK-3043","RA_OF_ASC_NODE":"85.2013","REF_FRAME":"TEME","ARG_OF_PERICENTER":"274.3673","PERIAPSIS":"357.281","NORAD_CAT_ID":"49179","INCLINATION":"70.0000","TLE_LINE2":"2 49179  70.0000  85.2013 0003488 274.3673 211.1492 15.69744150  2423","MEAN_ELEMENT_THEORY":"SGP4","DECAY_DATE":null,"TLE_LINE1":"1 49179U 21082BB  21271.91667824  .00005175  00000-0  45113-4 0  9995"},{"COUNTRY_CODE":"US","MEAN_MOTION":"15.69744111","OBJECT_ID":"2021-082BC","ELEMENT_SET_NO":"999","TIME_SYSTEM":"UTC","BSTAR":"0.00004543800000","FILE":"3133180","SITE":"AFWTR","OBJECT_TYPE":"PAYLOAD","APOAPSIS":"361.987","RCS_SIZE":"LARGE","GP_ID":"185729290","CENTER_NAME":"EARTH","REV_AT_EPOCH":"359","PERIOD":"91.735","MEAN_MOTION_DOT":"0.00005214","ECCENTRICITY":"0.00034970","LAUNCH_DATE":"2021-09-14","CLASSIFICATION_TYPE":"U","EPOCH":"2021-09-28T22:00:00.999936","INCLINATION":"70.0000","MEAN_ELEMENT_THEORY":"SGP4","TLE_LINE2":"2 49180  70.0000  85.1937 0003497 275.3779 216.5183 15.69744111  3599","TLE_LINE1":"1 49180U 21082BC  21271.91667824  .00005214  00000-0  45438-4 0  9991","DECAY_DATE":null,"PERIAPSIS":"357.275","NORAD_CAT_ID":"49180","RA_OF_ASC_NODE":"85.1937","REF_FRAME":"TEME","ARG_OF_PERICENTER":"275.3779","MEAN_ANOMALY":"216.5183","EPHEMERIS_TYPE":"0","OBJECT_NAME":"STARLINK-3050","MEAN_MOTION_DDOT":"0.0000000000000","SEMIMAJOR_AXIS":"6737.766"}];
